NAVSTAR 77 (USA 289)    
1 43873U 18109A   23349.56393741  .00000055  00000+0  00000+0 0  9991
2 43873  55.2302 128.3254 0027947 190.6733 131.7669  2.00571777 36724
